CCSDS_OMM_VERS = 2.0
CREATION_DATE  = 
ORIGINATOR     = 

OBJECT_NAME    = STARLINK-35278
OBJECT_ID      = 2025-224W
CENTER_NAME    = EARTH
REF_FRAME      = TEME
TIME_SYSTEM    = UTC
MEAN_ELEMENT_THEORY = SGP/SGP4

EPOCH          = 2025-10-31T20:00:03.000384
MEAN_MOTION    = 15.49354302
ECCENTRICITY   = .000124
INCLINATION    = 53.1596
RA_OF_ASC_NODE = 251.5348
ARG_OF_PERICENTER = 100.3403
MEAN_ANOMALY   = 209.4769

EPHEMERIS_TYPE = 0
CLASSIFICATION_TYPE = U
NORAD_CAT_ID   = 65902
ELEMENT_SET_NO = 999
REV_AT_EPOCH   = 517
BSTAR          = -.21765E-2
MEAN_MOTION_DOT = -.119852E-2
MEAN_MOTION_DDOT = 0

CCSDS_OMM_VERS = 2.0
CREATION_DATE  = 
ORIGINATOR     = 

OBJECT_NAME    = STARLINK-35210
OBJECT_ID      = 2025-224X
CENTER_NAME    = EARTH
REF_FRAME      = TEME
TIME_SYSTEM    = UTC
MEAN_ELEMENT_THEORY = SGP/SGP4

EPOCH          = 2025-10-31T20:00:03.000384
MEAN_MOTION    = 15.49367078
ECCENTRICITY   = .0001402
INCLINATION    = 53.1597
RA_OF_ASC_NODE = 251.5390
ARG_OF_PERICENTER = 111.4508
MEAN_ANOMALY   = 196.4132

EPHEMERIS_TYPE = 0
CLASSIFICATION_TYPE = U
NORAD_CAT_ID   = 65903
ELEMENT_SET_NO = 999
REV_AT_EPOCH   = 515
BSTAR          = -.16723E-2
MEAN_MOTION_DOT = -.9255E-3
MEAN_MOTION_DDOT = 0

CCSDS_OMM_VERS = 2.0
CREATION_DATE  = 
ORIGINATOR     = 

OBJECT_NAME    = STARLINK-35348
OBJECT_ID      = 2025-224Y
CENTER_NAME    = EARTH
REF_FRAME      = TEME
TIME_SYSTEM    = UTC
MEAN_ELEMENT_THEORY = SGP/SGP4

EPOCH          = 2025-10-31T20:00:03.000384
MEAN_MOTION    = 15.49314786
ECCENTRICITY   = .0001276
INCLINATION    = 53.1598
RA_OF_ASC_NODE = 251.5426
ARG_OF_PERICENTER = 98.8476
MEAN_ANOMALY   = 207.1093

EPHEMERIS_TYPE = 0
CLASSIFICATION_TYPE = U
NORAD_CAT_ID   = 65904
ELEMENT_SET_NO = 999
REV_AT_EPOCH   = 512
BSTAR          = -.18904E-3
MEAN_MOTION_DOT = -.10949E-3
MEAN_MOTION_DDOT = 0

CCSDS_OMM_VERS = 2.0
CREATION_DATE  = 
ORIGINATOR     = 

OBJECT_NAME    = STARLINK-35380
OBJECT_ID      = 2025-224Z
CENTER_NAME    = EARTH
REF_FRAME      = TEME
TIME_SYSTEM    = UTC
MEAN_ELEMENT_THEORY = SGP/SGP4

EPOCH          = 2025-10-31T20:00:03.000384
MEAN_MOTION    = 15.49297082
ECCENTRICITY   = .0001292
INCLINATION    = 53.1597
RA_OF_ASC_NODE = 251.5319
ARG_OF_PERICENTER = 99.8776
MEAN_ANOMALY   = 211.8758

EPHEMERIS_TYPE = 0
CLASSIFICATION_TYPE = U
NORAD_CAT_ID   = 65905
ELEMENT_SET_NO = 999
REV_AT_EPOCH   = 512
BSTAR          = -.26432E-3
MEAN_MOTION_DOT = -.15114E-3
MEAN_MOTION_DDOT = 0

CCSDS_OMM_VERS = 2.0
CREATION_DATE  = 
ORIGINATOR     = 

OBJECT_NAME    = STARLINK-35385
OBJECT_ID      = 2025-224AA
CENTER_NAME    = EARTH
REF_FRAME      = TEME
TIME_SYSTEM    = UTC
MEAN_ELEMENT_THEORY = SGP/SGP4

EPOCH          = 2025-10-31T20:00:03.000384
MEAN_MOTION    = 15.49323309
ECCENTRICITY   = .0001427
INCLINATION    = 53.1595
RA_OF_ASC_NODE = 251.5233
ARG_OF_PERICENTER = 112.6746
MEAN_ANOMALY   = 202.8745

EPHEMERIS_TYPE = 0
CLASSIFICATION_TYPE = U
NORAD_CAT_ID   = 65906
ELEMENT_SET_NO = 999
REV_AT_EPOCH   = 515
BSTAR          = -.60825E-3
MEAN_MOTION_DOT = -.34147E-3
MEAN_MOTION_DDOT = 0

CCSDS_OMM_VERS = 2.0
CREATION_DATE  = 
ORIGINATOR     = 

OBJECT_NAME    = STARLINK-35347
OBJECT_ID      = 2025-224AB
CENTER_NAME    = EARTH
REF_FRAME      = TEME
TIME_SYSTEM    = UTC
MEAN_ELEMENT_THEORY = SGP/SGP4

EPOCH          = 2025-10-31T20:00:03.000384
MEAN_MOTION    = 15.49314760
ECCENTRICITY   = .0001291
INCLINATION    = 53.1596
RA_OF_ASC_NODE = 251.5190
ARG_OF_PERICENTER = 99.2641
MEAN_ANOMALY   = 218.2001

EPHEMERIS_TYPE = 0
CLASSIFICATION_TYPE = U
NORAD_CAT_ID   = 65907
ELEMENT_SET_NO = 999
REV_AT_EPOCH   = 515
BSTAR          = -.14521E-3
MEAN_MOTION_DOT = -.8517E-4
MEAN_MOTION_DDOT = 0

CCSDS_OMM_VERS = 2.0
CREATION_DATE  = 
ORIGINATOR     = 

OBJECT_NAME    = STARLINK-35329
OBJECT_ID      = 2025-224AC
CENTER_NAME    = EARTH
REF_FRAME      = TEME
TIME_SYSTEM    = UTC
MEAN_ELEMENT_THEORY = SGP/SGP4

EPOCH          = 2025-10-31T20:00:03.000384
MEAN_MOTION    = 15.49333447
ECCENTRICITY   = .0001482
INCLINATION    = 53.1597
RA_OF_ASC_NODE = 251.5266
ARG_OF_PERICENTER = 91.1056
MEAN_ANOMALY   = 222.5359

EPHEMERIS_TYPE = 0
CLASSIFICATION_TYPE = U
NORAD_CAT_ID   = 65908
ELEMENT_SET_NO = 999
REV_AT_EPOCH   = 516
BSTAR          = -.11302E-2
MEAN_MOTION_DOT = -.62855E-3
MEAN_MOTION_DDOT = 0

CCSDS_OMM_VERS = 2.0
CREATION_DATE  = 
ORIGINATOR     = 

OBJECT_NAME    = STARLINK-35387
OBJECT_ID      = 2025-224AD
CENTER_NAME    = EARTH
REF_FRAME      = TEME
TIME_SYSTEM    = UTC
MEAN_ELEMENT_THEORY = SGP/SGP4

EPOCH          = 2025-10-31T20:00:03.000384
MEAN_MOTION    = 15.49362036
ECCENTRICITY   = .0001541
INCLINATION    = 53.1596
RA_OF_ASC_NODE = 251.5146
ARG_OF_PERICENTER = 113.9129
MEAN_ANOMALY   = 205.4526

EPHEMERIS_TYPE = 0
CLASSIFICATION_TYPE = U
NORAD_CAT_ID   = 65909
ELEMENT_SET_NO = 999
REV_AT_EPOCH   = 512
BSTAR          = -.14506E-2
MEAN_MOTION_DOT = -.80453E-3
MEAN_MOTION_DDOT = 0

CCSDS_OMM_VERS = 2.0
CREATION_DATE  = 
ORIGINATOR     = 

OBJECT_NAME    = STARLINK-35523
OBJECT_ID      = 2025-225A
CENTER_NAME    = EARTH
REF_FRAME      = TEME
TIME_SYSTEM    = UTC
MEAN_ELEMENT_THEORY = SGP/SGP4

EPOCH          = 2025-10-31T20:00:03.000384
MEAN_MOTION    = 15.55224325
ECCENTRICITY   = .0000805
INCLINATION    = 53.1598
RA_OF_ASC_NODE = 46.7569
ARG_OF_PERICENTER = 66.6556
MEAN_ANOMALY   = 298.4570

EPHEMERIS_TYPE = 0
CLASSIFICATION_TYPE = U
NORAD_CAT_ID   = 65910
ELEMENT_SET_NO = 999
REV_AT_EPOCH   = 468
BSTAR          = -.33307E-1
MEAN_MOTION_DOT = -.2045613E-1
MEAN_MOTION_DDOT = 0

CCSDS_OMM_VERS = 2.0
CREATION_DATE  = 
ORIGINATOR     = 

OBJECT_NAME    = STARLINK-35160
OBJECT_ID      = 2025-225B
CENTER_NAME    = EARTH
REF_FRAME      = TEME
TIME_SYSTEM    = UTC
MEAN_ELEMENT_THEORY = SGP/SGP4

EPOCH          = 2025-10-31T20:00:03.000384
MEAN_MOTION    = 15.55224921
ECCENTRICITY   = .000078
INCLINATION    = 53.1593
RA_OF_ASC_NODE = 46.7537
ARG_OF_PERICENTER = 67.8530
MEAN_ANOMALY   = 299.1760

EPHEMERIS_TYPE = 0
CLASSIFICATION_TYPE = U
NORAD_CAT_ID   = 65911
ELEMENT_SET_NO = 999
REV_AT_EPOCH   = 463
BSTAR          = -.33324E-1
MEAN_MOTION_DOT = -.2046562E-1
MEAN_MOTION_DDOT = 0

CCSDS_OMM_VERS = 2.0
CREATION_DATE  = 
ORIGINATOR     = 

OBJECT_NAME    = STARLINK-35508
OBJECT_ID      = 2025-225C
CENTER_NAME    = EARTH
REF_FRAME      = TEME
TIME_SYSTEM    = UTC
MEAN_ELEMENT_THEORY = SGP/SGP4

EPOCH          = 2025-10-31T20:00:03.000384
MEAN_MOTION    = 15.55224644
ECCENTRICITY   = .0000826
INCLINATION    = 53.1598
RA_OF_ASC_NODE = 46.7481
ARG_OF_PERICENTER = 69.0296
MEAN_ANOMALY   = 299.9172

EPHEMERIS_TYPE = 0
CLASSIFICATION_TYPE = U
NORAD_CAT_ID   = 65912
ELEMENT_SET_NO = 999
REV_AT_EPOCH   = 463
BSTAR          = -.33331E-1
MEAN_MOTION_DOT = -.2047E-1
MEAN_MOTION_DDOT = 0

CCSDS_OMM_VERS = 2.0
CREATION_DATE  = 
ORIGINATOR     = 

OBJECT_NAME    = STARLINK-35472
OBJECT_ID      = 2025-225D
CENTER_NAME    = EARTH
REF_FRAME      = TEME
TIME_SYSTEM    = UTC
MEAN_ELEMENT_THEORY = SGP/SGP4

EPOCH          = 2025-10-31T20:00:03.000384
MEAN_MOTION    = 15.55227926
ECCENTRICITY   = .0000853
INCLINATION    = 53.1599
RA_OF_ASC_NODE = 46.7445
ARG_OF_PERICENTER = 66.4476
MEAN_ANOMALY   = 304.4134

EPHEMERIS_TYPE = 0
CLASSIFICATION_TYPE = U
NORAD_CAT_ID   = 65913
ELEMENT_SET_NO = 999
REV_AT_EPOCH   = 467
BSTAR          = -.33396E-1
MEAN_MOTION_DOT = -.2050779E-1
MEAN_MOTION_DDOT = 0

