STARLINK-35278          
1 65902U 25224W   25304.83336806 -.00119852  00000+0 -21765-2 0  9998
2 65902  53.1596 251.5348 0001240 100.3403 209.4769 15.49354302  5175
STARLINK-35210          
1 65903U 25224X   25304.83336806 -.00092550  00000+0 -16723-2 0  9992
2 65903  53.1597 251.5390 0001402 111.4508 196.4132 15.49367078  5154
STARLINK-35348          
1 65904U 25224Y   25304.83336806 -.00010949  00000+0 -18904-3 0  9999
2 65904  53.1598 251.5426 0001276  98.8476 207.1093 15.49314786  5128
STARLINK-35380          
1 65905U 25224Z   25304.83336806 -.00015114  00000+0 -26432-3 0  9994
2 65905  53.1597 251.5319 0001292  99.8776 211.8758 15.49297082  5120
STARLINK-35385          
1 65906U 25224AA  25304.83336806 -.00034147  00000+0 -60825-3 0  9996
2 65906  53.1595 251.5233 0001427 112.6746 202.8745 15.49323309  5156
STARLINK-35347          
1 65907U 25224AB  25304.83336806 -.00008517  00000+0 -14521-3 0  9991
2 65907  53.1596 251.5190 0001291  99.2641 218.2001 15.49314760  5150
STARLINK-35329          
1 65908U 25224AC  25304.83336806 -.00062855  00000+0 -11302-2 0  9990
2 65908  53.1597 251.5266 0001482  91.1056 222.5359 15.49333447  5167
STARLINK-35387          
1 65909U 25224AD  25304.83336806 -.00080453  00000+0 -14506-2 0  9994
2 65909  53.1596 251.5146 0001541 113.9129 205.4526 15.49362036  5122
STARLINK-35523          
1 65910U 25225A   25304.83336806 -.02045613  00000+0 -33307-1 0  9997
2 65910  53.1598  46.7569 0000805  66.6556 298.4570 15.55224325  4685
STARLINK-35160          
1 65911U 25225B   25304.83336806 -.02046562  00000+0 -33324-1 0  9991
2 65911  53.1593  46.7537 0000780  67.8530 299.1760 15.55224921  4639
STARLINK-35508          
1 65912U 25225C   25304.83336806 -.02047000  00000+0 -33331-1 0  9998
2 65912  53.1598  46.7481 0000826  69.0296 299.9172 15.55224644  4634
STARLINK-35472          
1 65913U 25225D   25304.83336806 -.02050779  00000+0 -33396-1 0  9997
2 65913  53.1599  46.7445 0000853  66.4476 304.4134 15.55227926  4677
